NORAD_CAT_ID,OBJECT_NAME,OBJECT_TYPE,EPOCH,MEAN_MOTION,ECCENTRICITY,INCLINATION,RA_OF_ASC_NODE,ARG_OF_PERICENTER,MEAN_ANOMALY,BSTAR,MEAN_MOTION_DOT,MEAN_MOTION_DDOT,TLE_LINE0,TLE_LINE1,TLE_LINE2,SEMIMAJOR_AXIS,PERIOD,APOGEE,PERIGEE,DECAYED
53405.0,STARLINK-4510,PAYLOAD,2023-01-08 10:34:11,15.08832478,0.0001988,53.218,274.7307,61.0467,299.0724,4.5591e-05,4.37e-06,0.0,0 STARLINK-4510,1 53405U 22097T   23008.44040605  .00000437  00000-0  45591-4 0  9995,2 53405  53.2180 274.7307 0001988  61.0467 299.0724 15.08832478 23967,6917.903,95.438,541.144,538.393,0.0
53405.0,STARLINK-4510,PAYLOAD,2023-01-09 04:03:26,15.08831758,0.0001639,53.2175,271.4588,49.2775,310.836,4.8064e-05,4.77e-06,0.0,0 STARLINK-4510,1 53405U 22097T   23009.16905214  .00000477  00000-0  48064-4 0  9993,2 53405  53.2175 271.4588 0001639  49.2775 310.8360 15.08831758 23585,6917.906,95.438,540.904,538.637,0.0
53405.0,STARLINK-4510,PAYLOAD,2023-01-10 02:18:50,15.08821557,0.000178,53.2173,267.2958,45.6586,314.4552,0.00012721,1.736e-05,0.0,0 STARLINK-4510,1 53405U 22097T   23010.09642339  .00001736  00000-0  12721-3 0  9992,2 53405  53.2173 267.2958 0001780  45.6586 314.4552 15.08821557 23729,6917.937,95.439,541.033,538.57,0.0
53405.0,STARLINK-4510,PAYLOAD,2023-01-10 10:15:45,15.0883735,0.0001793,53.2179,265.8091,50.9146,309.2005,0.0001015,1.328e-05,0.0,0 STARLINK-4510,1 53405U 22097T   23010.42761461  .00001328  00000-0  10150-3 0  9998,2 53405  53.2179 265.8091 0001793  50.9146 309.2005 15.08837350 23770,6917.888000000001,95.438,540.994,538.513,0.0
53405.0,STARLINK-4510,PAYLOAD,2023-01-11 16:28:04,15.08851608,0.0001391,53.2158,260.1576,23.3844,336.7212,0.00022266,3.259e-05,0.0,0 STARLINK-4510,1 53405U 22097T   23011.68616576  .00003259  00000-0  22266-3 0  9999,2 53405  53.2158 260.1576 0001391  23.3844 336.7212 15.08851608 23964,6917.845,95.437,540.672,538.748,0.0
53405.0,STARLINK-4510,PAYLOAD,2023-01-11 22:49:38,15.0883791,0.0001824,53.2169,258.969,54.3623,305.7539,9.3827e-05,1.205e-05,0.0,0 STARLINK-4510,1 53405U 22097T   23011.95113924  .00001205  00000-0  93827-4 0  9999,2 53405  53.2169 258.9690 0001824  54.3623 305.7539 15.08837910 24002,6917.887,95.438,541.014,538.49,0.0
53405.0,STARLINK-4510,PAYLOAD,2023-01-12 22:40:25,15.08856041,0.0001851,53.2167,254.5083,61.902,298.2159,-0.0002773,-4.701e-05,0.0,0 STARLINK-4510,1 53405U 22097T   23012.94473401 -.00004701  00000-0 -27730-3 0  9993,2 53405  53.2167 254.5083 0001851  61.9020 298.2159 15.08856041 24159,6917.831,95.437,540.977,538.4159999999998,0.0
53405.0,STARLINK-4510,PAYLOAD,2023-01-14 08:03:32,15.08810249,0.0001918,53.2163,248.2625,67.8166,292.3029,0.00042018,6.4e-05,0.0,0 STARLINK-4510,1 53405U 22097T   23014.33579298  .00006400  00000-0  42018-3 0  9991,2 53405  53.2163 248.2625 0001918  67.8166 292.3029 15.08810249 24361,6917.971,95.439,541.163,538.509,0.0
53405.0,STARLINK-4510,PAYLOAD,2023-01-14 16:00:27,15.08832271,0.0001643,53.2149,246.7763,80.064,280.0538,8.7902e-06,-1.48e-06,0.0,0 STARLINK-4510,1 53405U 22097T   23014.66698875 -.00000148  00000-0  87902-5 0  9997,2 53405  53.2149 246.7763 0001643  80.0640 280.0538 15.08832271 24414,6917.904,95.438,540.906,538.632,0.0
53405.0,STARLINK-4510,PAYLOAD,2023-01-14 23:57:23,15.0884063,0.0001759,53.2146,245.2906,80.5763,279.5428,8.024699999999999e-05,9.89e-06,0.0,0 STARLINK-4510,1 53405U 22097T   23014.99818293  .00000989  00000-0  80247-4 0  9997,2 53405  53.2146 245.2906 0001759  80.5763 279.5428 15.08840630 24467,6917.878000000001,95.438,540.96,538.5269999999999,0.0
53405.0,STARLINK-4510,PAYLOAD,2023-01-15 07:54:18,15.08838843,0.0001636999999999,53.2159,243.8035,77.7586,282.35900000000004,6.141e-05,6.89e-06,0.0,0 STARLINK-4510,1 53405U 22097T   23015.32938512  .00000689  00000-0  61410-4 0  9990,2 53405  53.2159 243.8035 0001637  77.7586 282.3590 15.08838843 25000,6917.884,95.438,540.881,538.616,0.0
53405.0,STARLINK-4510,PAYLOAD,2023-01-15 19:02:00,15.08835435,0.0001829,53.2168,241.7205,82.825,277.295,7.8329e-05,9.59e-06,0.0,0 STARLINK-4510,1 53405U 22097T   23015.79306684  .00000959  00000-0  78329-4 0  9997,2 53405  53.2168 241.7205 0001829  82.8250 277.2950 15.08835435 24583,6917.894,95.438,541.025,538.494,0.0
53405.0,STARLINK-4510,PAYLOAD,2023-01-15 22:12:46,15.08854349,0.0001665,53.2149,241.1291,85.7028,274.4155,-5.5346e-05,-1.169e-05,0.0,0 STARLINK-4510,1 53405U 22097T   23015.92554128 -.00001169  00000-0 -55346-4 0  9990,2 53405  53.2149 241.1291 0001665  85.7028 274.4155 15.08854349 25092,6917.837,95.437,540.8530000000001,538.55,0.0
53405.0,STARLINK-4510,PAYLOAD,2023-01-16 07:45:05,15.08846838,0.0001439,53.2157,239.3433,93.4958,266.6199,-5.0011000000000006e-05,-1.084e-05,0.0,0 STARLINK-4510,1 53405U 22097T   23016.32298180 -.00001084  00000-0 -50011-4 0  9998,2 53405  53.2157 239.3433 0001439  93.4958 266.6199 15.08846838 24662,6917.859,95.437,540.72,538.729,0.0
53405.0,STARLINK-4510,PAYLOAD,2023-01-16 18:52:48,15.08826922,0.0001535,53.2155,237.2628,98.4053,261.7113,-3.1897e-05,-7.95e-06,0.0,0 STARLINK-4510,1 53405U 22097T   23016.78667713 -.00000795  00000-0 -31897-4 0  9999,2 53405  53.2155 237.2628 0001535  98.4053 261.7113 15.08826922 24733,6917.92,95.438,540.847,538.7230000000001,0.0
53405.0,STARLINK-4510,PAYLOAD,2023-01-16 23:38:57,15.08835463,0.0001434,53.2156,236.3689,91.8177,268.2979,-1.9512e-06,-3.19e-06,0.0,0 STARLINK-4510,1 53405U 22097T   23016.98539196 -.00000319  00000-0 -19512-5 0  9997,2 53405  53.2156 236.3689 0001434  91.8177 268.2979 15.08835463 24768,6917.894,95.438,540.751,538.7669999999999,0.0
53405.0,STARLINK-4510,PAYLOAD,2023-01-17 07:35:53,15.08832032,0.0001657,53.2153,234.8816,88.7885,271.3297,1.5455e-05,-4.2e-07,0.0,0 STARLINK-4510,1 53405U 22097T   23017.31659557 -.00000042  00000-0  15455-4 0  9992,2 53405  53.2153 234.8816 0001657  88.7885 271.3297 15.08832032 25306,6917.905,95.438,540.9159999999999,538.623,0.0
53405.0,STARLINK-4510,PAYLOAD,2023-01-17 17:08:12,15.08830878,0.0001296999999999,53.2161,233.0974,94.3167,265.7973,1.3014e-05,-8.1e-07,0.0,0 STARLINK-4510,1 53405U 22097T   23017.71403716 -.00000081  00000-0  13014-4 0  9992,2 53405  53.2161 233.0974 0001297  94.3167 265.7973 15.08830878 25367,6917.908,95.438,540.6709999999999,538.876,0.0
53405.0,STARLINK-4510,PAYLOAD,2023-01-18 07:26:40,15.08848379,0.0001375999999999,53.2159,230.4207,92.7481,267.3669,2.391e-05,9.3e-07,0.0,0 STARLINK-4510,1 53405U 22097T   23018.31018712  .00000093  00000-0  23910-4 0  9995,2 53405  53.2159 230.4207 0001376  92.7481 267.3669 15.08848379 24963,6917.855,95.437,540.672,538.768,0.0
53405.0,STARLINK-4510,PAYLOAD,2023-01-18 20:09:44,15.08846392,0.000133,53.216,228.0414,97.8473,262.267,0.00026407,3.918e-05,0.0,0 STARLINK-4510,1 53405U 22097T   23018.84010340  .00003918  00000-0  26407-3 0  9994,2 53405  53.2160 228.0414 0001330  97.8473 262.2670 15.08846392 25538,6917.861,95.437,540.646,538.806,0.0
53405.0,STARLINK-4510,PAYLOAD,2023-01-19 07:17:27,15.08843842,0.0001325,53.216,225.9599,91.4256,268.6888,0.00016901,2.403e-05,0.0,0 STARLINK-4510,1 53405U 22097T   23019.30378808  .00002403  00000-0  16901-3 0  9998,2 53405  53.2160 225.9599 0001325  91.4256 268.6888 15.08843842 25113,6917.869000000001,95.437,540.65,538.817,0.0
53405.0,STARLINK-4510,PAYLOAD,2023-01-19 13:39:00,15.088315,0.0001405,53.2158,224.7707,92.2092,267.9061,9.1308e-05,1.165e-05,0.0,0 STARLINK-4510,1 53405U 22097T   23019.56875971  .00001165  00000-0  91308-4 0  9998,2 53405  53.2158 224.7707 0001405  92.2092 267.9061 15.08831500 25645,6917.906,95.438,540.743,538.799,0.0
53405.0,STARLINK-4510,PAYLOAD,2023-01-19 20:00:33,15.08837547,0.0001405,53.2144,223.5817,89.8768,270.2385,0.00010445,1.375e-05,0.0,0 STARLINK-4510,1 53405U 22097T   23019.83371596  .00001375  00000-0  10445-3 0  9997,2 53405  53.2144 223.5817 0001405  89.8768 270.2385 15.08837547 25194,6917.888000000001,95.438,540.725,538.781,0.0
53405.0,STARLINK-4510,PAYLOAD,2023-01-20 08:43:37,15.08844788,0.0001375,53.2144,221.2034,84.3317,275.7832,0.00010944,1.454e-05,0.0,0 STARLINK-4510,1 53405U 22097T   23020.36363248  .00001454  00000-0  10944-3 0  9994,2 53405  53.2144 221.2034 0001375  84.3317 275.7832 15.08844788 25761,6917.866,95.437,540.682,538.78,0.0
53405.0,STARLINK-4510,PAYLOAD,2023-01-20 19:51:19,15.08851236,0.0001381,53.2142,219.1215,83.8894,276.2256,0.00028224,4.208e-05,0.0,0 STARLINK-4510,1 53405U 22097T   23020.82730937  .00004208  00000-0  28224-3 0  9998,2 53405  53.2142 219.1215 0001381  83.8894 276.2256 15.08851236 25343,6917.846,95.437,540.6659999999999,538.756,0.0
53405.0,STARLINK-4510,PAYLOAD,2023-01-21 10:09:48,15.08840351,0.0001406999999999,53.214,216.4453,81.7929,278.3223,0.0002190999999999,3.201e-05,0.0,0 STARLINK-4510,1 53405U 22097T   23021.42347429  .00003201  00000-0  21910-3 0  9992,2 53405  53.2140 216.4453 0001407  81.7929 278.3223 15.08840351 25433,6917.879,95.438,540.7180000000001,538.771,0.0
53405.0,STARLINK-4510,PAYLOAD,2023-01-22 13:11:21,15.08842869,0.0001337,53.2143,211.3899,87.0728,273.0417,7.511e-05,9.08e-06,0.0,0 STARLINK-4510,1 53405U 22097T   23022.54955191  .00000908  00000-0  75110-4 0  9990,2 53405  53.2143 211.3899 0001337  87.0728 273.0417 15.08842869 25604,6917.871999999999,95.437,540.6619999999999,538.812,0.0
53405.0,STARLINK-4510,PAYLOAD,2023-01-23 05:05:13,15.08832768,0.0001376999999999,53.2145,208.4158,85.5559,274.559,0.00030077,4.501e-05,0.0,0 STARLINK-4510,1 53405U 22097T   23023.21195717  .00004501  00000-0  30077-3 0  9990,2 53405  53.2145 208.4158 0001377  85.5559 274.5590 15.08832768 25706,6917.901999999999,95.438,540.72,538.815,0.0
53405.0,STARLINK-4510,PAYLOAD,2023-01-23 19:23:40,15.08842507,0.0001336,53.2146,205.7394,100.3758,259.7385,5.025e-05,5.12e-06,0.0,0 STARLINK-4510,1 53405U 22097T   23023.80811078  .00000512  00000-0  50250-4 0  9994,2 53405  53.2146 205.7394 0001336 100.3758 259.7385 15.08842507 25799,6917.8730000000005,95.437,540.6619999999999,538.813,0.0
